[
    {
        "Altitude(m)": 554979.4835348709,
        "Argument of Periapsis(deg)": 0.033114955553567506,
        "Eccentricity": 0.0,
        "Inclination(deg)": 53.0,
        "Latitude(deg)": -4.7940318681596175,
        "Longitude(deg)": 62.408639747859404,
        "Mean Anomaly(deg)": -5.90553566211209,
        "RAAN(deg)": 169.9507168426401,
        "Satellite Name": "Starlink Shell 1 766",
        "Satellite Number": 766,
        "Semi-Major Axis(m)": 6931778.249405717,
        "Time(s)": 950
    },
    {
        "Altitude(m)": 554889.3607086074,
        "Argument of Periapsis(deg)": 0.03346353403307874,
        "Eccentricity": 0.0,
        "Inclination(deg)": 53.0,
        "Latitude(deg)": -4.291111031573455,
        "Longitude(deg)": 62.74629939381248,
        "Mean Anomaly(deg)": -5.2787044585553184,
        "RAAN(deg)": 169.95019807256264,
        "Satellite Name": "Starlink Shell 1 766",
        "Satellite Number": 766,
        "Semi-Major Axis(m)": 6931778.249405717,
        "Time(s)": 960
    },
    {
        "Altitude(m)": 554801.9187200619,
        "Argument of Periapsis(deg)": 0.03381211251258998,
        "Eccentricity": 0.0,
        "Inclination(deg)": 53.0,
        "Latitude(deg)": -3.7879845058988337,
        "Longitude(deg)": 63.08347221430457,
        "Mean Anomaly(deg)": -4.651873254998648,
        "RAAN(deg)": 169.94967930248515,
        "Satellite Name": "Starlink Shell 1 766",
        "Satellite Number": 766,
        "Semi-Major Axis(m)": 6931778.249405717,
        "Time(s)": 970
    },
    {
        "Altitude(m)": 554717.1763332657,
        "Argument of Periapsis(deg)": 0.034160690992101214,
        "Eccentricity": 0.0,
        "Inclination(deg)": 53.0,
        "Latitude(deg)": -3.284675530894527,
        "Longitude(deg)": 63.42021649975066,
        "Mean Anomaly(deg)": -4.025042051441902,
        "RAAN(deg)": 169.9491605324077,
        "Satellite Name": "Starlink Shell 1 766",
        "Satellite Number": 766,
        "Semi-Major Axis(m)": 6931778.249405717,
        "Time(s)": 980
    },
    {
        "Altitude(m)": 554635.1509853844,
        "Argument of Periapsis(deg)": 0.034509269471612446,
        "Eccentricity": 0.0,
        "Inclination(deg)": 53.0,
        "Latitude(deg)": -2.7812072615628205,
        "Longitude(deg)": 63.75659086045431,
        "Mean Anomaly(deg)": -3.398210847885155,
        "RAAN(deg)": 169.94864176233023,
        "Satellite Name": "Starlink Shell 1 766",
        "Satellite Number": 766,
        "Semi-Major Axis(m)": 6931778.249405717,
        "Time(s)": 990
    }
]